H1 CPF 01  gfz 2022 08 26 00  7381 terrasarx 
H2 0702601  6201 31698    2022 08 26 00 59 42 2022 08 31 00 00 42   120 1 1  0 0 0
H9
10 0 59817  53262.000000  0   -4585455.066  -4821989.525  -1793476.539
10 0 59817  53382.000000  0   -4512014.634  -4486894.917  -2648600.972
10 0 59817  53502.000000  0   -4353377.313  -4075602.755  -3457220.103
10 0 59817  53622.000000  0   -4111128.250  -3596832.566  -4205196.550
10 0 59817  53742.000000  0   -3788468.382  -3060425.410  -4879488.175
10 0 59817  53862.000000  0   -3390167.789  -2477136.924  -5468370.981
10 0 59817  53982.000000  0   -2922489.028  -1858418.108  -5961634.712
10 0 59817  54102.000000  0   -2393083.362  -1216188.793  -6350750.034
10 0 59817  54222.000000  0   -1810860.835   -562607.830  -6629005.164
10 0 59817  54342.000000  0   -1185837.698     90154.852  -6791609.469
10 0 59817  54462.000000  0    -528965.844    730139.583  -6835765.867
10 0 59817  54582.000000  0     148055.311   1345810.464  -6760714.016
10 0 59817  54702.000000  0     832981.218   1926257.454  -6567742.059
10 0 59817  54822.000000  0    1513238.631   2461385.854  -6260169.286
10 0 59817  54942.000000  0    2176151.969   2942089.960  -5843294.853
10 0 59817  55062.000000  0    2809175.880   3360408.160  -5324315.275
10 0 59817  55182.000000  0    3400130.084   3709656.186  -4712211.090
10 0 59817  55302.000000  0    3937434.385   3984538.797  -4017603.445
10 0 59817  55422.000000  0    4410339.019   4181235.659  -3252579.686
10 0 59817  55542.000000  0    4809144.992   4297459.124  -2430489.613
10 0 59817  55662.000000  0    5125407.963   4332481.812  -1565715.974
10 0 59817  55782.000000  0    5352122.347   4287133.475   -673422.685
10 0 59817  55902.000000  0    5483878.741   4163766.263    230714.923
10 0 59817  56022.000000  0    5516991.719   3966189.748   1130791.169
10 0 59817  56142.000000  0    5449594.934   3699575.442   2010958.058
10 0 59817  56262.000000  0    5281699.277   3370332.974   2855713.453
10 0 59817  56382.000000  0    5015211.715   2985962.489   3650182.755
10 0 59817  56502.000000  0    4653915.453   2554885.979   4380387.513
10 0 59817  56622.000000  0    4203412.221   2086261.625   5033493.210
10 0 59817  56742.000000  0    3671030.618   1589789.557   5598035.986
10 0 59817  56862.000000  0    3065697.771   1075509.195   6064122.360
10 0 59817  56982.000000  0    2397782.074    553594.134   6423595.935
10 0 59817  57102.000000  0    1678911.063     34151.618   6670172.595
10 0 59817  57222.000000  0     921766.676   -472971.816   6799546.103
10 0 59817  57342.000000  0     139859.095   -958376.913   6809459.501
10 0 59817  57462.000000  0    -652714.892  -1413285.300   6699741.006
10 0 59817  57582.000000  0   -1441525.567  -1829698.160   6472306.035
10 0 59817  57702.000000  0   -2212071.342  -2200536.561   6131124.361
10 0 59817  57822.000000  0   -2950043.112  -2519761.475   5682156.508
10 0 59817  57942.000000  0   -3641592.623  -2782474.883   5133258.412
10 0 59817  58062.000000  0   -4273597.688  -2984997.496   4494048.650
10 0 59817  58182.000000  0   -4833916.238  -3124920.964   3775743.764
10 0 59817  58302.000000  0   -5311625.670  -3201133.721   2990964.581
10 0 59817  58422.000000  0   -5697243.125  -3213820.818   2153516.277
10 0 59817  58542.000000  0   -5982921.728  -3164437.677   1278143.200
10 0 59817  58662.000000  0   -6162615.575  -3055656.458    380262.938
10 0 59817  58782.000000  0   -6232209.672  -2891286.393   -524312.545
10 0 59817  58902.000000  0   -6189612.364  -2676171.229  -1419664.702
10 0 59817  59022.000000  0   -6034805.091  -2416064.699  -2290058.507
10 0 59817  59142.000000  0   -5769849.559  -2117488.805  -3120225.552
10 0 59817  59262.000000  0   -5398854.387  -1787578.897  -3895635.954
10 0 59817  59382.000000  0   -4927901.348  -1433919.212  -4602753.234
10 0 59817  59502.000000  0   -4364934.793  -1064373.290  -5229267.756
10 0 59817  59622.000000  0   -3719616.190   -686912.785  -5764304.926
10 0 59817  59742.000000  0   -3003148.456   -309449.241  -6198604.035
10 0 59817  59862.000000  0   -2228075.078     60327.700  -6524666.872
10 0 59817  59982.000000  0   -1408057.409    415102.062  -6736875.678
10 0 59817  60102.000000  0    -557634.762    748070.925  -6831579.260
10 0 59817  60222.000000  0     308028.469   1053071.243  -6807148.360
10 0 59817  60342.000000  0    1173405.559   1324689.992  -6664000.867
10 0 59817  60462.000000  0    2022879.958   1558358.149  -6404598.037
10 0 59817  60582.000000  0    2841021.842   1750427.168  -6033406.548
10 0 59817  60702.000000  0    3612864.583   1898225.482  -5556828.688
10 0 59817  60822.000000  0    4324175.870   2000094.837  -4983102.363
10 0 59817  60942.000000  0    4961722.645   2055406.732  -4322170.826
10 0 59817  61062.000000  0    5513523.107   2064557.422  -3585520.213
10 0 59817  61182.000000  0    5969079.634   2028941.241  -2785988.567
10 0 59817  61302.000000  0    6319589.561   1950903.064  -1937548.515
10 0 59817  61422.000000  0    6558126.935   1833670.528  -1055064.000
10 0 59817  61542.000000  0    6679789.626   1681266.414   -154027.651
10 0 59817  61662.000000  0    6681807.544   1498403.251    749717.761
10 0 59817  61782.000000  0    6563607.454   1290363.625   1640264.284
10 0 59817  61902.000000  0    6326837.170   1062868.509   2501927.575
10 0 59817  62022.000000  0    5975342.065    821936.086   3319532.609
10 0 59817  62142.000000  0    5515098.162    573736.286   4078688.076
10 0 59817  62262.000000  0    4954101.279    324443.874   4766044.000
10 0 59817  62382.000000  0    4302219.612     80095.192   5369527.419
10 0 59817  62502.000000  0    3571009.685   -153550.486   5878554.240
10 0 59817  62622.000000  0    2773501.383   -371139.235   6284209.633
10 0 59817  62742.000000  0    1923959.542   -567838.575   6579398.143
10 0 59817  62862.000000  0    1037624.766   -739440.134   6758962.675
10 0 59817  62982.000000  0     130436.493   -882446.814   6819769.707
10 0 59817  63102.000000  0    -781254.388   -994142.215   6760759.215
10 0 59817  63222.000000  0   -1680979.191  -1072642.100   6582961.190
10 0 59817  63342.000000  0   -2552447.305  -1116926.034   6289478.037
10 0 59817  63462.000000  0   -3379839.432  -1126849.042   5885434.581
10 0 59817  63582.000000  0   -4148097.098  -1103133.841   5377896.025
10 0 59817  63702.000000  0   -4843202.216  -1047344.385   4775750.823
10 0 59817  63822.000000  0   -5452440.315   -961839.612   4089559.921
10 0 59817  63942.000000  0   -5964641.405   -849708.607   3331374.492
10 0 59817  64062.000000  0   -6370393.244   -714688.502   2514526.340
10 0 59817  64182.000000  0   -6662225.156   -561066.928   1653393.771
10 0 59817  64302.000000  0   -6834755.563   -393571.118    763143.423
10 0 59817  64422.000000  0   -6884796.976   -217246.859   -140544.519
10 0 59817  64542.000000  0   -6811417.268    -37329.678  -1041761.263
10 0 59817  64662.000000  0   -6615954.687    140888.290  -1924658.709
10 0 59817  64782.000000  0   -6301987.798    312191.534  -2773734.542
10 0 59817  64902.000000  0   -5875262.669    471571.868  -3574111.213
10 0 59817  65022.000000  0   -5343574.668    614353.621  -4311800.166
10 0 59817  65142.000000  0   -4716612.866    736309.408  -4973944.682
10 0 59817  65262.000000  0   -4005770.358    833763.953  -5549038.481
10 0 59817  65382.000000  0   -3223926.730    903683.859  -6027116.770
10 0 59817  65502.000000  0   -2385207.068    943751.013  -6399917.634
10 0 59817  65622.000000  0   -1504724.094    952419.603  -6661013.157
10 0 59817  65742.000000  0    -598305.782    928956.030  -6805909.419
10 0 59817  65862.000000  0     317784.411    873460.113  -6832113.932
10 0 59817  65982.000000  0    1227130.973    786868.059  -6739174.705
10 0 59817  66102.000000  0    2113454.480    670936.878  -6528689.496
10 0 59817  66222.000000  0    2960897.229    528210.633  -6204280.887
10 0 59817  66342.000000  0    3754302.780    361969.274  -5771540.143
10 0 59817  66462.000000  0    4479484.448    176159.367  -5237939.918
10 0 59817  66582.000000  0    5123480.633    -24690.724  -4612717.249
10 0 59817  66702.000000  0    5674793.340   -235570.668  -3906724.662
10 0 59817  66822.000000  0    6123602.221   -451101.386  -3132250.828
10 0 59817  66942.000000  0    6461950.987   -665659.460  -2302814.185
10 0 59817  67062.000000  0    6683901.811   -873510.137  -1432930.253
10 0 59817  67182.000000  0    6785651.612  -1068945.135   -537856.679
10 0 59817  67302.000000  0    6765607.340  -1246422.488    366678.127
10 0 59817  67422.000000  0    6624418.102  -1400704.794   1264758.391
10 0 59817  67542.000000  0    6364961.597  -1526992.659   2140569.407
10 0 59817  67662.000000  0    5992286.003  -1621049.127   2978685.802
10 0 59817  67782.000000  0    5513506.765  -1679311.277   3764351.219
10 0 59817  67902.000000  0    4937663.196  -1698988.029   4483743.424
10 0 59817  68022.000000  0    4275538.553  -1678140.042   5124219.694
10 0 59817  68142.000000  0    3539449.379  -1615739.970   5674538.900
10 0 59817  68262.000000  0    2743007.066  -1511713.119   6125056.643
10 0 59817  68382.000000  0    1900858.729  -1366957.191   6467888.400
10 0 59817  68502.000000  0    1028413.210  -1183341.313   6697042.033
10 0 59817  68622.000000  0     141555.629   -963683.272   6808516.836
10 0 59817  68742.000000  0    -743642.652   -711705.850   6800367.860
10 0 59817  68862.000000  0   -1611213.947   -431973.758   6672736.872
10 0 59817  68982.000000  0   -2445580.743   -129811.224   6427849.976
10 0 59817  69102.000000  0   -3231834.400    188798.396   6069982.030
10 0 59817  69222.000000  0   -3956003.026    517329.297   5605387.681
10 0 59817  69342.000000  0   -4605304.162    848844.224   5042198.139
10 0 59817  69462.000000  0   -5168376.866   1176137.932   4390284.917
10 0 59817  69582.000000  0   -5635488.980   1491890.572   3661091.071
10 0 59817  69702.000000  0   -5998713.776   1788827.312   2867432.839
99
